{"type": "FeatureCollection", "features": [ {"type": "Feature", "properties": {"norad_id": 33939, "name": "COSMOS 2251 DEB", "group": "cosmos-2251-debris", "lat": -14.962779345083696, "lon": 77.24626234916495, "alt_km": 571.0648770637981, "timestamp": "2025-12-12T05:47:29.164504+00:00", "meta": {"OBJECT_NAME": "COSMOS 2251 DEB", "OBJECT_ID": "1993-036EU", "EPOCH": "2025-12-11T09:02:57.474240", "MEAN_MOTION": 14.99741717, "ECCENTRICITY": 0.0003448, "INCLINATION": 74.0065, "RA_OF_ASC_NODE": 83.4008, "ARG_OF_PERICENTER": 62.6749, "MEAN_ANOMALY": 297.4788, "EPHEMERIS_TYPE": 0, "CLASSIFICATION_TYPE": "U", "NORAD_CAT_ID": 33939, "ELEMENT_SET_NO": 999, "REV_AT_EPOCH": 88732, "BSTAR": 0.0068543545, "MEAN_MOTION_DOT": 0.00085715, "MEAN_MOTION_DDOT": 0}, "tle": {"line1": "1 33939U 93036EU  25345.37705410  .00085715  00000+0  68544-2 0  9998", "line2": "2 33939  74.0065  83.4008 0003448  62.6749 297.4788 14.99741717887320"}}, "geometry": {"type": "Point", "coordinates": [77.24626234916495, -14.962779345083696]}}, {"type": "Feature", "properties": {"norad_id": 33940, "name": "COSMOS 2251 DEB", "group": "cosmos-2251-debris", "lat": -8.365807690087113, "lon": -33.14182368275006, "alt_km": 694.2110946397788, "timestamp": "2025-12-12T05:47:29.164514+00:00", "meta": {"OBJECT_NAME": "COSMOS 2251 DEB", "OBJECT_ID": "1993-036EV", "EPOCH": "2025-12-11T21:23:23.090208", "MEAN_MOTION": 14.58781077, "ECCENTRICITY": 0.00113644, "INCLINATION": 74.0397, "RA_OF_ASC_NODE": 145.1124, "ARG_OF_PERICENTER": 224.9079, "MEAN_ANOMALY": 286.0732, "EPHEMERIS_TYPE": 0, "CLASSIFICATION_TYPE": "U", "NORAD_CAT_ID": 33940, "ELEMENT_SET_NO": 999, "REV_AT_EPOCH": 88581, "BSTAR": 0.0018002068, "MEAN_MOTION_DOT": 8.401e-05, "MEAN_MOTION_DDOT": 0}, "tle": {"line1": "1 33940U 93036EV  25345.89123947  .00008401  00000+0  18002-2 0  9997", "line2": "2 33940  74.0397 145.1124 0011364 224.9079 286.0732 14.58781077885813"}}, "geometry": {"type": "Point", "coordinates": [-33.14182368275006, -8.365807690087113]}}, {"type": "Feature", "properties": {"norad_id": 33942, "name": "COSMOS 2251 DEB", "group": "cosmos-2251-debris", "lat": 59.274282099561525, "lon": -55.46408344897808, "alt_km": 752.7658116981802, "timestamp": "2025-12-12T05:47:29.164524+00:00", "meta": {"OBJECT_NAME": "COSMOS 2251 DEB", "OBJECT_ID": "1993-036EX", "EPOCH": "2025-12-11T23:08:58.461792", "MEAN_MOTION": 14.37987106, "ECCENTRICITY": 0.00202772, "INCLINATION": 74.0366, "RA_OF_ASC_NODE": 276.2561, "ARG_OF_PERICENTER": 359.6843, "MEAN_ANOMALY": 71.4925, "EPHEMERIS_TYPE": 0, "CLASSIFICATION_TYPE": "U", "NORAD_CAT_ID": 33942, "ELEMENT_SET_NO": 999, "REV_AT_EPOCH": 88123, "BSTAR": 0.00038510332, "MEAN_MOTION_DOT": 1.141e-05, "MEAN_MOTION_DDOT": 0}, "tle": {"line1": "1 33942U 93036EX  25345.96456553  .00001141  00000+0  38510-3 0  9990", "line2": "2 33942  74.0366 276.2561 0020277 359.6843  71.4925 14.37987106881230"}}, "geometry": {"type": "Point", "coordinates": [-55.46408344897808, 59.274282099561525]}}, {"type": "Feature", "properties": {"norad_id": 33944, "name": "COSMOS 2251 DEB", "group": "cosmos-2251-debris", "lat": -58.42270102576808, "lon": -77.90450404003265, "alt_km": 803.190195774605, "timestamp": "2025-12-12T05:47:29.164534+00:00", "meta": {"OBJECT_NAME": "COSMOS 2251 DEB", "OBJECT_ID": "1993-036EZ", "EPOCH": "2025-12-11T23:42:42.732576", "MEAN_MOTION": 14.37340754, "ECCENTRICITY": 0.01121711, "INCLINATION": 74.0402, "RA_OF_ASC_NODE": 310.309, "ARG_OF_PERICENTER": 50.1071, "MEAN_ANOMALY": 18.5228, "EPHEMERIS_TYPE": 0, "CLASSIFICATION_TYPE": "U", "NORAD_CAT_ID": 33944, "ELEMENT_SET_NO": 999, "REV_AT_EPOCH": 88017, "BSTAR": 0.00053829725, "MEAN_MOTION_DOT": 1.701e-05, "MEAN_MOTION_DDOT": 0}, "tle": {"line1": "1 33944U 93036EZ  25345.98799459  .00001701  00000+0  53830-3 0  9993", "line2": "2 33944  74.0402 310.3090 0112171  50.1071  18.5228 14.37340754880173"}}, "geometry": {"type": "Point", "coordinates": [-77.90450404003265, -58.42270102576808]}}, {"type": "Feature", "properties": {"norad_id": 33945, "name": "COSMOS 2251 DEB", "group": "cosmos-2251-debris", "lat": 72.64953277550893, "lon": 60.74909425723264, "alt_km": 761.9698725224071, "timestamp": "2025-12-12T05:47:29.164545+00:00", "meta": {"OBJECT_NAME": "COSMOS 2251 DEB", "OBJECT_ID": "1993-036FA", "EPOCH": "2025-12-12T00:19:21.512352", "MEAN_MOTION": 14.34600059, "ECCENTRICITY": 0.00218627, "INCLINATION": 74.0297, "RA_OF_ASC_NODE": 307.5978, "ARG_OF_PERICENTER": 34.1614, "MEAN_ANOMALY": 326.094, "EPHEMERIS_TYPE": 0, "CLASSIFICATION_TYPE": "U", "NORAD_CAT_ID": 33945, "ELEMENT_SET_NO": 999, "REV_AT_EPOCH": 88005, "BSTAR": 0.00022978314, "MEAN_MOTION_DOT": 6.25e-06, "MEAN_MOTION_DDOT": 0}, "tle": {"line1": "1 33945U 93036FA  25346.01344343  .00000625  00000+0  22978-3 0  9990", "line2": "2 33945  74.0297 307.5978 0021862  34.1614 326.0940 14.34600059880059"}}, "geometry": {"type": "Point", "coordinates": [60.74909425723264, 72.64953277550893]}}, {"type": "Feature", "properties": {"norad_id": 33948, "name": "COSMOS 2251 DEB", "group": "cosmos-2251-debris", "lat": -53.38637704770383, "lon": -76.61093289673438, "alt_km": 776.3694530013408, "timestamp": "2025-12-12T05:47:29.164555+00:00", "meta": {"OBJECT_NAME": "COSMOS 2251 DEB", "OBJECT_ID": "1993-036FD", "EPOCH": "2025-12-11T23:21:51.282144", "MEAN_MOTION": 14.35627857, "ECCENTRICITY": 0.00226835, "INCLINATION": 74.0356, "RA_OF_ASC_NODE": 306.5398, "ARG_OF_PERICENTER": 22.6023, "MEAN_ANOMALY": 337.6124, "EPHEMERIS_TYPE": 0, "CLASSIFICATION_TYPE": "U", "NORAD_CAT_ID": 33948, "ELEMENT_SET_NO": 999, "REV_AT_EPOCH": 88012, "BSTAR": 0.0003214852, "MEAN_MOTION_DOT": 9.04e-06, "MEAN_MOTION_DDOT": 0}, "tle": {"line1": "1 33948U 93036FD  25345.97351021  .00000904  00000+0  32149-3 0  9999", "line2": "2 33948  74.0356 306.5398 0022683  22.6023 337.6124 14.35627857880127"}}, "geometry": {"type": "Point", "coordinates": [-76.61093289673438, -53.38637704770383]}}, {"type": "Feature", "properties": {"norad_id": 33971, "name": "COSMOS 2251 DEB", "group": "cosmos-2251-debris", "lat": 3.965453328444519, "lon": -104.20784824770077, "alt_km": 748.4318495970583, "timestamp": "2025-12-12T05:47:29.164565+00:00", "meta": {"OBJECT_NAME": "COSMOS 2251 DEB", "OBJECT_ID": "1993-036FE", "EPOCH": "2025-12-11T21:46:57.656064", "MEAN_MOTION": 14.39723294, "ECCENTRICITY": 0.00185234, "INCLINATION": 74.0251, "RA_OF_ASC_NODE": 255.2708, "ARG_OF_PERICENTER": 355.9329, "MEAN_ANOMALY": 79.4123, "EPHEMERIS_TYPE": 0, "CLASSIFICATION_TYPE": "U", "NORAD_CAT_ID": 33971, "ELEMENT_SET_NO": 999, "REV_AT_EPOCH": 88127, "BSTAR": 0.00044911017, "MEAN_MOTION_DOT": 1.383e-05, "MEAN_MOTION_DDOT": 0}, "tle": {"line1": "1 33971U 93036FE  25345.90761176  .00001383  00000+0  44911-3 0  9996", "line2": "2 33971  74.0251 255.2708 0018523 355.9329  79.4123 14.39723294881274"}}, "geometry": {"type": "Point", "coordinates": [-104.20784824770077, 3.965453328444519]}}, {"type": "Feature", "properties": {"norad_id": 33972, "name": "COSMOS 2251 DEB", "group": "cosmos-2251-debris", "lat": -49.91646609576131, "lon": 171.64189716284437, "alt_km": 722.7572634110484, "timestamp": "2025-12-12T05:47:29.164575+00:00", "meta": {"OBJECT_NAME": "COSMOS 2251 DEB", "OBJECT_ID": "1993-036FF", "EPOCH": "2025-12-11T00:38:11.538816", "MEAN_MOTION": 14.36201122, "ECCENTRICITY": 0.01232315, "INCLINATION": 73.9948, "RA_OF_ASC_NODE": 193.8194, "ARG_OF_PERICENTER": 1.925, "MEAN_ANOMALY": 148.1574, "EPHEMERIS_TYPE": 0, "CLASSIFICATION_TYPE": "U", "NORAD_CAT_ID": 33972, "ELEMENT_SET_NO": 999, "REV_AT_EPOCH": 87049, "BSTAR": 0.0015405762, "MEAN_MOTION_DOT": 4.877e-05, "MEAN_MOTION_DDOT": 0}, "tle": {"line1": "1 33972U 93036FF  25345.02652244  .00004877  00000+0  15406-2 0  9992", "line2": "2 33972  73.9948 193.8194 0123231   1.9250 148.1574 14.36201122870490"}}, "geometry": {"type": "Point", "coordinates": [171.64189716284437, -49.91646609576131]}}, {"type": "Feature", "properties": {"norad_id": 33973, "name": "COSMOS 2251 DEB", "group": "cosmos-2251-debris", "lat": 41.09871475993304, "lon": 118.31081400802925, "alt_km": 754.3097887301965, "timestamp": "2025-12-12T05:47:29.164586+00:00", "meta": {"OBJECT_NAME": "COSMOS 2251 DEB", "OBJECT_ID": "1993-036FG", "EPOCH": "2025-12-11T14:44:00.446784", "MEAN_MOTION": 14.45388996, "ECCENTRICITY": 0.004731, "INCLINATION": 74.0082, "RA_OF_ASC_NODE": 104.9948, "ARG_OF_PERICENTER": 283.6155, "MEAN_ANOMALY": 95.7681, "EPHEMERIS_TYPE": 0, "CLASSIFICATION_TYPE": "U", "NORAD_CAT_ID": 33973, "ELEMENT_SET_NO": 999, "REV_AT_EPOCH": 88584, "BSTAR": 0.00025205547, "MEAN_MOTION_DOT": 8.71e-06, "MEAN_MOTION_DDOT": 0}, "tle": {"line1": "1 33973U 93036FG  25345.61389406  .00000871  00000+0  25206-3 0  9995", "line2": "2 33973  74.0082 104.9948 0047310 283.6155  95.7681 14.45388996885844"}}, "geometry": {"type": "Point", "coordinates": [118.31081400802925, 41.09871475993304]}}, {"type": "Feature", "properties": {"norad_id": 33975, "name": "COSMOS 2251 DEB", "group": "cosmos-2251-debris", "lat": 59.14217556538418, "lon": 114.43873118503409, "alt_km": 1011.3181939032302, "timestamp": "2025-12-12T05:47:29.164596+00:00", "meta": {"OBJECT_NAME": "COSMOS 2251 DEB", "OBJECT_ID": "1993-036FJ", "EPOCH": "2025-12-11T08:54:25.516224", "MEAN_MOTION": 14.00521461, "ECCENTRICITY": 0.0191329, "INCLINATION": 73.8024, "RA_OF_ASC_NODE": 86.8585, "ARG_OF_PERICENTER": 219.9477, "MEAN_ANOMALY": 138.7449, "EPHEMERIS_TYPE": 0, "CLASSIFICATION_TYPE": "U", "NORAD_CAT_ID": 33975, "ELEMENT_SET_NO": 999, "REV_AT_EPOCH": 85810, "BSTAR": 0.0011796959, "MEAN_MOTION_DOT": 2.027e-05, "MEAN_MOTION_DDOT": 0}, "tle": {"line1": "1 33975U 93036FJ  25345.37112866  .00002027  00000+0  11797-2 0  9998", "line2": "2 33975  73.8024  86.8585 0191329 219.9477 138.7449 14.00521461858109"}}, "geometry": {"type": "Point", "coordinates": [114.43873118503409, 59.14217556538418]}}]}